GEOSCAN-3 (RS92S3)
1 64893U 25155T   26195.62205698  .00010703  00000-0  30438-3 0  9991
2 64893  97.4549 165.8392 0008616  88.7948 271.4283 15.36295804 85068
INNOSAT3 (RS92S0)
1 64894U 25155U   26195.58262538  .00025476  00000-0  52632-3 0  9996
2 64894  97.4492 167.7767 0008309  92.2702 267.9499 15.45786335 85197
KNACKSAT-2
1 67683U 98067XZ  26195.36323014  .00036699  00000-0  41017-3 0  9994
2 67683  51.6267 157.5314 0008025 324.9954  35.0511 15.62347754 24528
