OBJECT_NAME,OBJECT_ID,EPOCH,MEAN_MOTION,ECCENTRICITY,INCLINATION,RA_OF_ASC_NODE,ARG_OF_PERICENTER,MEAN_ANOMALY,EPHEMERIS_TYPE,CLASSIFICATION_TYPE,NORAD_CAT_ID,ELEMENT_SET_NO,REV_AT_EPOCH,BSTAR,MEAN_MOTION_DOT,MEAN_MOTION_DDOT
GEOSCAN 3 (RS92S3),2025-155T,2026-07-14T14:55:45.723072,15.36295804,.00086165,97.4549,165.8392,88.7948,271.4283,0,U,64893,999,8506,.30438341E-3,.10703E-3,0
INNOSAT 3 (RS92S0),2025-155U,2026-07-14T13:58:58.832832,15.45786335,.0008309,97.4492,167.7767,92.2702,267.9499,0,U,64894,999,8519,.52632333E-3,.25476E-3,0
KNACKSAT-2,1998-067XZ,2026-07-14T08:43:03.084096,15.62347754,.00080246,51.6267,157.5314,324.9954,35.0511,0,U,67683,999,2452,.41016626E-3,.36699E-3,0
